KUIPER-00035            
1 63748U 25088AA  26003.47346789  .00005353  00000+0  73005-3 0  9993
2 63748  51.9026  42.5006 0005609 215.5603 144.4986 14.79964341 37859
KUIPER-00037            
1 63749U 25088AB  26003.47512144  .00009791  00000+0  13096-2 0  9997
2 63749  51.9010  41.4378 0000393 149.2165 210.8821 14.79992641 38653
KUIPER-00038            
1 63750U 25088AC  26003.42369913  .00001563  00000+0  23404-3 0  9992
2 63750  51.9036  26.6830 0006600 220.5013 139.5459 14.79946424 37856
KUIPER-00039            
1 64500U 25134A   26003.12647525 -.00101153  00000+0 -13552-1 0  9992
2 64500  51.9006 163.0034 0010591  79.6152 280.6004 14.79535220 30361
KUIPER-00040            
1 64501U 25134B   26002.91133120  .00004861  00000+0  66539-3 0  9991
2 64501  51.8975 175.1073 0016977  51.7338 308.5148 14.79921764 30174
KUIPER-00041            
1 64502U 25134C   26002.70765597  .00007720  00000+0  10389-2 0  9996
2 64502  51.8966 177.3621 0012612  54.3921 305.8214 14.79960874 30121
KUIPER-00042            
1 64503U 25134D   26002.91394967  .00000801  00000+0  13431-3 0  9994
2 64503  51.8985 172.4556 0012632  63.0897 297.1355 14.79955141 30217
KUIPER-00043            
1 64504U 25134E   26003.12467400  .00004111  00000+0  56841-3 0  9992
2 64504  51.9005 163.9738 0003464  87.0210 273.1149 14.79896771 30350
